[{"OBJECT_NAME":"STARLINK-6086","OBJECT_ID":"2023-065AU","EPOCH":"2026-03-03T16:00:01.999584","MEAN_MOTION":15.07782605,"ECCENTRICITY":0.00021905,"INCLINATION":42.9998,"RA_OF_ASC_NODE":255.8258,"ARG_OF_PERICENTER":241.7523,"MEAN_ANOMALY":50.5099,"EPHEMERIS_TYPE":0,"CLASSIFICATION_TYPE":"U","NORAD_CAT_ID":56545,"ELEMENT_SET_NO":999,"REV_AT_EPOCH":578,"BSTAR":0.0033479404,"MEAN_MOTION_DOT":0.0005225,"MEAN_MOTION_DDOT":0},{"OBJECT_NAME":"STARLINK-6187","OBJECT_ID":"2023-065AV","EPOCH":"2026-03-03T16:00:01.999584","MEAN_MOTION":15.07476159,"ECCENTRICITY":0.00014668,"INCLINATION":42.9995,"RA_OF_ASC_NODE":255.9406,"ARG_OF_PERICENTER":244.5829,"MEAN_ANOMALY":0.9526,"EPHEMERIS_TYPE":0,"CLASSIFICATION_TYPE":"U","NORAD_CAT_ID":56546,"ELEMENT_SET_NO":999,"REV_AT_EPOCH":578,"BSTAR":0.0032603273,"MEAN_MOTION_DOT":0.00050439,"MEAN_MOTION_DDOT":0},{"OBJECT_NAME":"STARLINK-6291","OBJECT_ID":"2023-065AW","EPOCH":"2026-03-03T16:00:01.999584","MEAN_MOTION":15.05319707,"ECCENTRICITY":0.00016641,"INCLINATION":42.9997,"RA_OF_ASC_NODE":255.4615,"ARG_OF_PERICENTER":272.572,"MEAN_ANOMALY":173.7936,"EPHEMERIS_TYPE":0,"CLASSIFICATION_TYPE":"U","NORAD_CAT_ID":56547,"ELEMENT_SET_NO":999,"REV_AT_EPOCH":574,"BSTAR":0.0011280961,"MEAN_MOTION_DOT":0.00016244,"MEAN_MOTION_DDOT":0},{"OBJECT_NAME":"STARLINK-6244","OBJECT_ID":"2023-065AX","EPOCH":"2026-03-03T16:00:01.999584","MEAN_MOTION":15.05783661,"ECCENTRICITY":0.00013332,"INCLINATION":42.9996,"RA_OF_ASC_NODE":255.9168,"ARG_OF_PERICENTER":245.1524,"MEAN_ANOMALY":6.4891,"EPHEMERIS_TYPE":0,"CLASSIFICATION_TYPE":"U","NORAD_CAT_ID":56548,"ELEMENT_SET_NO":999,"REV_AT_EPOCH":578,"BSTAR":0.0014064646,"MEAN_MOTION_DOT":0.00020574,"MEAN_MOTION_DDOT":0},{"OBJECT_NAME":"STARLINK-6263","OBJECT_ID":"2023-065AY","EPOCH":"2026-03-03T16:00:01.999584","MEAN_MOTION":15.06959036,"ECCENTRICITY":0.00024363,"INCLINATION":42.9998,"RA_OF_ASC_NODE":255.6974,"ARG_OF_PERICENTER":260.9318,"MEAN_ANOMALY":85.4917,"EPHEMERIS_TYPE":0,"CLASSIFICATION_TYPE":"U","NORAD_CAT_ID":56549,"ELEMENT_SET_NO":999,"REV_AT_EPOCH":568,"BSTAR":0.0032258597,"MEAN_MOTION_DOT":0.00049199,"MEAN_MOTION_DDOT":0},{"OBJECT_NAME":"STARLINK-6255","OBJECT_ID":"2023-065AZ","EPOCH":"2026-03-03T16:00:01.999584","MEAN_MOTION":15.06475015,"ECCENTRICITY":0.00019853,"INCLINATION":42.9999,"RA_OF_ASC_NODE":255.8183,"ARG_OF_PERICENTER":249.8052,"MEAN_ANOMALY":46.0855,"EPHEMERIS_TYPE":0,"CLASSIFICATION_TYPE":"U","NORAD_CAT_ID":56550,"ELEMENT_SET_NO":999,"REV_AT_EPOCH":564,"BSTAR":0.0018315557,"MEAN_MOTION_DOT":0.00027391,"MEAN_MOTION_DDOT":0},{"OBJECT_NAME":"STARLINK-6199","OBJECT_ID":"2023-065BA","EPOCH":"2026-03-03T16:00:01.999584","MEAN_MOTION":15.05721496,"ECCENTRICITY":0.00021338,"INCLINATION":43.0013,"RA_OF_ASC_NODE":255.6636,"ARG_OF_PERICENTER":254.2827,"MEAN_ANOMALY":104.3208,"EPHEMERIS_TYPE":0,"CLASSIFICATION_TYPE":"U","NORAD_CAT_ID":56551,"ELEMENT_SET_NO":999,"REV_AT_EPOCH":573,"BSTAR":0.0015392615,"MEAN_MOTION_DOT":0.00022505,"MEAN_MOTION_DDOT":0},{"OBJECT_NAME":"STARLINK-5802","OBJECT_ID":"2023-065BB","EPOCH":"2026-03-03T16:00:01.999584","MEAN_MOTION":15.07237344,"ECCENTRICITY":0.00020134,"INCLINATION":43,"RA_OF_ASC_NODE":255.7008,"ARG_OF_PERICENTER":241.8798,"MEAN_ANOMALY":100.3087,"EPHEMERIS_TYPE":0,"CLASSIFICATION_TYPE":"U","NORAD_CAT_ID":56552,"ELEMENT_SET_NO":999,"REV_AT_EPOCH":578,"BSTAR":0.0013434125,"MEAN_MOTION_DOT":0.00020436,"MEAN_MOTION_DDOT":0},{"OBJECT_NAME":"STARLINK-6074","OBJECT_ID":"2023-065BC","EPOCH":"2026-03-03T14:23:04.431840","MEAN_MOTION":15.02538628,"ECCENTRICITY":0.00012051,"INCLINATION":43.0024,"RA_OF_ASC_NODE":256.0104,"ARG_OF_PERICENTER":264.2175,"MEAN_ANOMALY":95.853,"EPHEMERIS_TYPE":0,"CLASSIFICATION_TYPE":"U","NORAD_CAT_ID":56553,"ELEMENT_SET_NO":999,"REV_AT_EPOCH":15556,"BSTAR":9.8875458e-5,"MEAN_MOTION_DOT":1.132e-5,"MEAN_MOTION_DDOT":0},{"OBJECT_NAME":"STARLINK-6295","OBJECT_ID":"2023-065BD","EPOCH":"2026-03-03T16:00:01.999584","MEAN_MOTION":15.055048,"ECCENTRICITY":0.00022445,"INCLINATION":43.0003,"RA_OF_ASC_NODE":255.6818,"ARG_OF_PERICENTER":262.2446,"MEAN_ANOMALY":90.2358,"EPHEMERIS_TYPE":0,"CLASSIFICATION_TYPE":"U","NORAD_CAT_ID":56554,"ELEMENT_SET_NO":999,"REV_AT_EPOCH":568,"BSTAR":0.0016293638,"MEAN_MOTION_DOT":0.00023699,"MEAN_MOTION_DDOT":0},{"OBJECT_NAME":"STARLINK-6252","OBJECT_ID":"2023-065BE","EPOCH":"2026-03-03T16:00:01.999584","MEAN_MOTION":15.07545641,"ECCENTRICITY":0.00015416,"INCLINATION":42.9991,"RA_OF_ASC_NODE":255.4927,"ARG_OF_PERICENTER":281.7392,"MEAN_ANOMALY":149.9235,"EPHEMERIS_TYPE":0,"CLASSIFICATION_TYPE":"U","NORAD_CAT_ID":56555,"ELEMENT_SET_NO":999,"REV_AT_EPOCH":579,"BSTAR":0.0030048598,"MEAN_MOTION_DOT":0.00046533,"MEAN_MOTION_DDOT":0},{"OBJECT_NAME":"STARLINK-5302","OBJECT_ID":"2023-065BF","EPOCH":"2026-03-03T16:00:01.999584","MEAN_MOTION":15.06942794,"ECCENTRICITY":0.00017734,"INCLINATION":42.9997,"RA_OF_ASC_NODE":255.539,"ARG_OF_PERICENTER":264.2205,"MEAN_ANOMALY":144.4946,"EPHEMERIS_TYPE":0,"CLASSIFICATION_TYPE":"U","NORAD_CAT_ID":56556,"ELEMENT_SET_NO":999,"REV_AT_EPOCH":574,"BSTAR":0.00078734074,"MEAN_MOTION_DOT":0.00011778,"MEAN_MOTION_DDOT":0},{"OBJECT_NAME":"STARLINK-6265","OBJECT_ID":"2023-065BG","EPOCH":"2026-03-03T16:00:01.999584","MEAN_MOTION":15.05658098,"ECCENTRICITY":0.00015724,"INCLINATION":42.9996,"RA_OF_ASC_NODE":255.4843,"ARG_OF_PERICENTER":271.984,"MEAN_ANOMALY":160.0276,"EPHEMERIS_TYPE":0,"CLASSIFICATION_TYPE":"U","NORAD_CAT_ID":56557,"ELEMENT_SET_NO":999,"REV_AT_EPOCH":579,"BSTAR":0.0012484359,"MEAN_MOTION_DOT":0.0001817,"MEAN_MOTION_DDOT":0},{"OBJECT_NAME":"STARLINK-6286","OBJECT_ID":"2023-065BH","EPOCH":"2026-03-03T13:25:42.098592","MEAN_MOTION":15.02534769,"ECCENTRICITY":0.00012723,"INCLINATION":43.0018,"RA_OF_ASC_NODE":256.5626,"ARG_OF_PERICENTER":259.4198,"MEAN_ANOMALY":100.6501,"EPHEMERIS_TYPE":0,"CLASSIFICATION_TYPE":"U","NORAD_CAT_ID":56558,"ELEMENT_SET_NO":999,"REV_AT_EPOCH":15555,"BSTAR":4.5016701e-5,"MEAN_MOTION_DOT":4.05e-6,"MEAN_MOTION_DDOT":0},{"OBJECT_NAME":"STARLINK-30122","OBJECT_ID":"2023-067A","EPOCH":"2026-03-03T01:00:41.039424","MEAN_MOTION":15.02533777,"ECCENTRICITY":8.876e-5,"INCLINATION":43.0033,"RA_OF_ASC_NODE":311.1028,"ARG_OF_PERICENTER":280.1504,"MEAN_ANOMALY":79.9238,"EPHEMERIS_TYPE":0,"CLASSIFICATION_TYPE":"U","NORAD_CAT_ID":56688,"ELEMENT_SET_NO":999,"REV_AT_EPOCH":15472,"BSTAR":-4.073632e-5,"MEAN_MOTION_DOT":-7.54e-6,"MEAN_MOTION_DDOT":0},{"OBJECT_NAME":"STARLINK-30129","OBJECT_ID":"2023-067B","EPOCH":"2026-03-03T00:46:17.990688","MEAN_MOTION":15.02533266,"ECCENTRICITY":0.00010459,"INCLINATION":43.0029,"RA_OF_ASC_NODE":311.0344,"ARG_OF_PERICENTER":274.5641,"MEAN_ANOMALY":85.5082,"EPHEMERIS_TYPE":0,"CLASSIFICATION_TYPE":"U","NORAD_CAT_ID":56689,"ELEMENT_SET_NO":999,"REV_AT_EPOCH":15465,"BSTAR":2.240404e-6,"MEAN_MOTION_DOT":-1.73e-6,"MEAN_MOTION_DDOT":0},{"OBJECT_NAME":"STARLINK-30124","OBJECT_ID":"2023-067C","EPOCH":"2026-03-03T02:17:13.478496","MEAN_MOTION":15.02536835,"ECCENTRICITY":0.00020592,"INCLINATION":43.006,"RA_OF_ASC_NODE":310.6541,"ARG_OF_PERICENTER":247.1652,"MEAN_ANOMALY":112.8974,"EPHEMERIS_TYPE":0,"CLASSIFICATION_TYPE":"U","NORAD_CAT_ID":56690,"ELEMENT_SET_NO":999,"REV_AT_EPOCH":15466,"BSTAR":6.26344e-6,"MEAN_MOTION_DOT":-1.19e-6,"MEAN_MOTION_DDOT":0},{"OBJECT_NAME":"STARLINK-30036","OBJECT_ID":"2023-067E","EPOCH":"2026-03-03T00:31:54.822720","MEAN_MOTION":15.02538333,"ECCENTRICITY":0.00017892,"INCLINATION":43.0071,"RA_OF_ASC_NODE":310.9822,"ARG_OF_PERICENTER":249.9608,"MEAN_ANOMALY":110.1041,"EPHEMERIS_TYPE":0,"CLASSIFICATION_TYPE":"U","NORAD_CAT_ID":56692,"ELEMENT_SET_NO":999,"REV_AT_EPOCH":15352,"BSTAR":-9.3330527e-5,"MEAN_MOTION_DOT":-1.464e-5,"MEAN_MOTION_DDOT":0},{"OBJECT_NAME":"STARLINK-30067","OBJECT_ID":"2023-067F","EPOCH":"2026-03-03T01:58:03.489312","MEAN_MOTION":15.02535377,"ECCENTRICITY":9.475e-5,"INCLINATION":43.0052,"RA_OF_ASC_NODE":310.5758,"ARG_OF_PERICENTER":255.8772,"MEAN_ANOMALY":104.1965,"EPHEMERIS_TYPE":0,"CLASSIFICATION_TYPE":"U","NORAD_CAT_ID":56693,"ELEMENT_SET_NO":999,"REV_AT_EPOCH":15466,"BSTAR":-1.420422e-6,"MEAN_MOTION_DOT":-2.23e-6,"MEAN_MOTION_DDOT":0},{"OBJECT_NAME":"STARLINK-30126","OBJECT_ID":"2023-067G","EPOCH":"2026-03-03T16:00:01.999584","MEAN_MOTION":15.08095733,"ECCENTRICITY":0.00017942,"INCLINATION":42.9992,"RA_OF_ASC_NODE":307.3734,"ARG_OF_PERICENTER":235.4632,"MEAN_ANOMALY":58.463,"EPHEMERIS_TYPE":0,"CLASSIFICATION_TYPE":"U","NORAD_CAT_ID":56694,"ELEMENT_SET_NO":999,"REV_AT_EPOCH":564,"BSTAR":0.10075876,"MEAN_MOTION_DOT":0.01734875,"MEAN_MOTION_DDOT":0},{"OBJECT_NAME":"STARLINK-30121","OBJECT_ID":"2023-067H","EPOCH":"2026-03-03T01:53:15.556128","MEAN_MOTION":15.02533227,"ECCENTRICITY":0.00010923,"INCLINATION":43.0039,"RA_OF_ASC_NODE":310.5266,"ARG_OF_PERICENTER":262.3906,"MEAN_ANOMALY":97.6812,"EPHEMERIS_TYPE":0,"CLASSIFICATION_TYPE":"U","NORAD_CAT_ID":56695,"ELEMENT_SET_NO":999,"REV_AT_EPOCH":15466,"BSTAR":-2.970636e-6,"MEAN_MOTION_DOT":-2.44e-6,"MEAN_MOTION_DDOT":0},{"OBJECT_NAME":"STARLINK-30130","OBJECT_ID":"2023-067K","EPOCH":"2026-03-03T02:10:26.236416","MEAN_MOTION":15.26765819,"ECCENTRICITY":0.00013697,"INCLINATION":42.9992,"RA_OF_ASC_NODE":308.0837,"ARG_OF_PERICENTER":297.0682,"MEAN_ANOMALY":63.0029,"EPHEMERIS_TYPE":0,"CLASSIFICATION_TYPE":"U","NORAD_CAT_ID":56697,"ELEMENT_SET_NO":999,"REV_AT_EPOCH":15443,"BSTAR":-0.000421675,"MEAN_MOTION_DOT":-0.00011562,"MEAN_MOTION_DDOT":0},{"OBJECT_NAME":"STARLINK-30068","OBJECT_ID":"2023-067L","EPOCH":"2026-03-03T16:00:01.999584","MEAN_MOTION":15.17258827,"ECCENTRICITY":0.00014799,"INCLINATION":42.9994,"RA_OF_ASC_NODE":293.5974,"ARG_OF_PERICENTER":263.0429,"MEAN_ANOMALY":4.6786,"EPHEMERIS_TYPE":0,"CLASSIFICATION_TYPE":"U","NORAD_CAT_ID":56698,"ELEMENT_SET_NO":999,"REV_AT_EPOCH":579,"BSTAR":0.044034486,"MEAN_MOTION_DOT":0.00970094,"MEAN_MOTION_DDOT":0}]
